[{"OBJECT_NAME":"SCS-01 D","OBJECT_ID":"2025-100D","EPOCH":"2026-03-09T18:08:45.040704","MEAN_MOTION":15.31902149,"ECCENTRICITY":0.00063457,"INCLINATION":97.373,"RA_OF_ASC_NODE":145.4097,"ARG_OF_PERICENTER":266.2302,"MEAN_ANOMALY":93.8214,"EPHEMERIS_TYPE":0,"CLASSIFICATION_TYPE":"U","NORAD_CAT_ID":63985,"ELEMENT_SET_NO":999,"REV_AT_EPOCH":4562,"BSTAR":0.0010528181,"MEAN_MOTION_DOT":0.00032471,"MEAN_MOTION_DDOT":0},{"OBJECT_NAME":"STARLINK-35649","OBJECT_ID":"2025-237M","EPOCH":"2026-03-09T22:35:32.374752","MEAN_MOTION":15.3021073,"ECCENTRICITY":0.00012282,"INCLINATION":53.161,"RA_OF_ASC_NODE":38.1301,"ARG_OF_PERICENTER":100.9783,"MEAN_ANOMALY":259.1356,"EPHEMERIS_TYPE":0,"CLASSIFICATION_TYPE":"U","NORAD_CAT_ID":66125,"ELEMENT_SET_NO":999,"REV_AT_EPOCH":2265,"BSTAR":0.00081774871,"MEAN_MOTION_DOT":0.00023946,"MEAN_MOTION_DDOT":0}]
